{
 "generated_at": "2026-07-13T08:17:10Z",
 "sources": [
  {
   "name": "CelesTrak",
   "url": "https://celestrak.org/NORAD/elements/",
   "license": "frei verfügbar; Attribution. Ursprünglich USSPACECOM/Space-Track."
  },
  {
   "name": "GCAT (J. McDowell, planet4589.org)",
   "url": "https://planet4589.org/space/gcat/",
   "license": "CC-BY 4.0"
  }
 ],
 "satellites": [
  {
   "norad": 59371,
   "name": "RESURS-P 4",
   "intl": "2024-061A",
   "group": "resource",
   "gcat": {
    "class": "C",
    "category": "IMG",
    "owner": "TSSKBP?",
    "state": "RU"
   },
   "omm": {
    "OBJECT_NAME": "RESURS-P 4",
    "OBJECT_ID": "2024-061A",
    "EPOCH": "2026-07-12T20:43:54.283008",
    "MEAN_MOTION": 15.32271921,
    "ECCENTRICITY": 0.0003214,
    "INCLINATION": 97.2758,
    "RA_OF_ASC_NODE": 141.3189,
    "ARG_OF_PERICENTER": 92.8635,
    "MEAN_ANOMALY": 267.2975,
    "EPHEMERIS_TYPE": 0,
    "CLASSIFICATION_TYPE": "U",
    "NORAD_CAT_ID": 59371,
    "ELEMENT_SET_NO": 999,
    "REV_AT_EPOCH": 12769,
    "BSTAR": 0.000060677,
    "MEAN_MOTION_DOT": 0.00001815,
    "MEAN_MOTION_DDOT": 0
   }
  },
  {
   "norad": 44233,
   "name": "RISAT-2B",
   "intl": "2019-028A",
   "group": "sar",
   "gcat": {
    "class": "C",
    "category": "IMG-R",
    "owner": "ISRO",
    "state": "IN"
   },
   "omm": {
    "OBJECT_NAME": "RISAT-2B",
    "OBJECT_ID": "2019-028A",
    "EPOCH": "2026-07-12T16:27:16.836192",
    "MEAN_MOTION": 15.01077231,
    "ECCENTRICITY": 0.0008798,
    "INCLINATION": 36.9959,
    "RA_OF_ASC_NODE": 202.865,
    "ARG_OF_PERICENTER": 244.2908,
    "MEAN_ANOMALY": 115.6926,
    "EPHEMERIS_TYPE": 0,
    "CLASSIFICATION_TYPE": "U",
    "NORAD_CAT_ID": 44233,
    "ELEMENT_SET_NO": 999,
    "REV_AT_EPOCH": 39166,
    "BSTAR": 0.000082249,
    "MEAN_MOTION_DOT": 0.00000992,
    "MEAN_MOTION_DDOT": 0
   }
  },
  {
   "norad": 44857,
   "name": "RISAT-2BR1",
   "intl": "2019-089F",
   "group": "sar",
   "gcat": {
    "class": "C",
    "category": "IMG-R",
    "owner": "ISRO",
    "state": "IN"
   },
   "omm": {
    "OBJECT_NAME": "RISAT-2BR1",
    "OBJECT_ID": "2019-089F",
    "EPOCH": "2026-07-12T19:42:03.097152",
    "MEAN_MOTION": 15.01152988,
    "ECCENTRICITY": 0.0010017,
    "INCLINATION": 36.9614,
    "RA_OF_ASC_NODE": 319.5174,
    "ARG_OF_PERICENTER": 26.1216,
    "MEAN_ANOMALY": 334.003,
    "EPHEMERIS_TYPE": 0,
    "CLASSIFICATION_TYPE": "U",
    "NORAD_CAT_ID": 44857,
    "ELEMENT_SET_NO": 999,
    "REV_AT_EPOCH": 36105,
    "BSTAR": 0.00014287,
    "MEAN_MOTION_DOT": 0.00001787,
    "MEAN_MOTION_DDOT": 0
   }
  },
  {
   "norad": 46905,
   "name": "RISAT-2BR2",
   "intl": "2020-081A",
   "group": "sar",
   "gcat": {
    "class": "C",
    "category": "IMG-R",
    "owner": "ISRO",
    "state": "IN"
   },
   "omm": {
    "OBJECT_NAME": "RISAT-2BR2",
    "OBJECT_ID": "2020-081A",
    "EPOCH": "2026-07-12T21:14:36.415680",
    "MEAN_MOTION": 15.01169364,
    "ECCENTRICITY": 0.0013706,
    "INCLINATION": 36.8988,
    "RA_OF_ASC_NODE": 71.7101,
    "ARG_OF_PERICENTER": 1.161,
    "MEAN_ANOMALY": 358.9161,
    "EPHEMERIS_TYPE": 0,
    "CLASSIFICATION_TYPE": "U",
    "NORAD_CAT_ID": 46905,
    "ELEMENT_SET_NO": 999,
    "REV_AT_EPOCH": 31133,
    "BSTAR": 0.00013496,
    "MEAN_MOTION_DOT": 0.00001687,
    "MEAN_MOTION_DDOT": 0
   }
  },
  {
   "norad": 43641,
   "name": "SAOCOM 1A",
   "intl": "2018-076A",
   "group": "sar",
   "gcat": {
    "class": "C",
    "category": "IMG-R",
    "owner": "CONAE",
    "state": "AR"
   },
   "omm": {
    "OBJECT_NAME": "SAOCOM 1A",
    "OBJECT_ID": "2018-076A",
    "EPOCH": "2026-07-12T20:34:52.586976",
    "MEAN_MOTION": 14.82144984,
    "ECCENTRICITY": 0.0001444,
    "INCLINATION": 97.8888,
    "RA_OF_ASC_NODE": 20.2335,
    "ARG_OF_PERICENTER": 83.2669,
    "MEAN_ANOMALY": 276.8708,
    "EPHEMERIS_TYPE": 0,
    "CLASSIFICATION_TYPE": "U",
    "NORAD_CAT_ID": 43641,
    "ELEMENT_SET_NO": 999,
    "REV_AT_EPOCH": 41990,
    "BSTAR": -0.000009973,
    "MEAN_MOTION_DOT": -0.00000132,
    "MEAN_MOTION_DDOT": 0
   }
  },
  {
   "norad": 46265,
   "name": "SAOCOM 1B",
   "intl": "2020-059A",
   "group": "sar",
   "gcat": {
    "class": "C",
    "category": "IMG-R",
    "owner": "CONAE",
    "state": "AR"
   },
   "omm": {
    "OBJECT_NAME": "SAOCOM 1B",
    "OBJECT_ID": "2020-059A",
    "EPOCH": "2026-07-12T19:42:36.984960",
    "MEAN_MOTION": 14.82159292,
    "ECCENTRICITY": 0.000159,
    "INCLINATION": 97.8892,
    "RA_OF_ASC_NODE": 19.2941,
    "ARG_OF_PERICENTER": 82.2213,
    "MEAN_ANOMALY": 277.9181,
    "EPHEMERIS_TYPE": 0,
    "CLASSIFICATION_TYPE": "U",
    "NORAD_CAT_ID": 46265,
    "ELEMENT_SET_NO": 999,
    "REV_AT_EPOCH": 31728,
    "BSTAR": 0.000091462,
    "MEAN_MOTION_DOT": 0.00000676,
    "MEAN_MOTION_DDOT": 0
   }
  },
  {
   "norad": 31797,
   "name": "SAR-LUPE 2",
   "intl": "2007-030A",
   "group": "sar",
   "gcat": {
    "class": "D",
    "category": "IMG-R",
    "owner": "BWB",
    "state": "D"
   },
   "omm": {
    "OBJECT_NAME": "SAR-LUPE 2",
    "OBJECT_ID": "2007-030A",
    "EPOCH": "2026-07-12T21:05:47.545728",
    "MEAN_MOTION": 15.53529483,
    "ECCENTRICITY": 0.0004688,
    "INCLINATION": 98.1061,
    "RA_OF_ASC_NODE": 301.5761,
    "ARG_OF_PERICENTER": 210.0933,
    "MEAN_ANOMALY": 150.0049,
    "EPHEMERIS_TYPE": 0,
    "CLASSIFICATION_TYPE": "U",
    "NORAD_CAT_ID": 31797,
    "ELEMENT_SET_NO": 999,
    "REV_AT_EPOCH": 6092,
    "BSTAR": 0.000094297,
    "MEAN_MOTION_DOT": 0.00005876,
    "MEAN_MOTION_DDOT": 0
   }
  },
  {
   "norad": 39086,
   "name": "SARAL",
   "intl": "2013-009A",
   "group": "resource",
   "gcat": {
    "class": "C",
    "category": "SCI",
    "owner": "ISRO/CNES",
    "state": "IN"
   },
   "omm": {
    "OBJECT_NAME": "SARAL",
    "OBJECT_ID": "2013-009A",
    "EPOCH": "2026-07-12T19:23:43.562976",
    "MEAN_MOTION": 14.32895411,
    "ECCENTRICITY": 0.0001555,
    "INCLINATION": 98.5554,
    "RA_OF_ASC_NODE": 20.0513,
    "ARG_OF_PERICENTER": 172.8072,
    "MEAN_ANOMALY": 187.3135,
    "EPHEMERIS_TYPE": 0,
    "CLASSIFICATION_TYPE": "U",
    "NORAD_CAT_ID": 39086,
    "ELEMENT_SET_NO": 999,
    "REV_AT_EPOCH": 69927,
    "BSTAR": 0.000031433,
    "MEAN_MOTION_DOT": 4.2e-7,
    "MEAN_MOTION_DDOT": 0
   }
  },
  {
   "norad": 43831,
   "name": "SAUDISAT 5A",
   "intl": "2018-102A",
   "group": "resource",
   "gcat": {
    "class": "C",
    "category": "TECH",
    "owner": "KACST",
    "state": "SA"
   },
   "omm": {
    "OBJECT_NAME": "SAUDISAT 5A",
    "OBJECT_ID": "2018-102A",
    "EPOCH": "2026-07-12T21:33:32.431392",
    "MEAN_MOTION": 15.28307094,
    "ECCENTRICITY": 0.0010625,
    "INCLINATION": 97.3059,
    "RA_OF_ASC_NODE": 254.9855,
    "ARG_OF_PERICENTER": 50.9993,
    "MEAN_ANOMALY": 309.2191,
    "EPHEMERIS_TYPE": 0,
    "CLASSIFICATION_TYPE": "U",
    "NORAD_CAT_ID": 43831,
    "ELEMENT_SET_NO": 999,
    "REV_AT_EPOCH": 41960,
    "BSTAR": 0.00012784,
    "MEAN_MOTION_DOT": 0.00003456,
    "MEAN_MOTION_DDOT": 0
   }
  },
  {
   "norad": 43833,
   "name": "SAUDISAT 5B",
   "intl": "2018-102C",
   "group": "resource",
   "gcat": {
    "class": "C",
    "category": "TECH",
    "owner": "KACST",
    "state": "SA"
   },
   "omm": {
    "OBJECT_NAME": "SAUDISAT 5B",
    "OBJECT_ID": "2018-102C",
    "EPOCH": "2026-07-12T20:20:20.906016",
    "MEAN_MOTION": 15.28550776,
    "ECCENTRICITY": 0.0011407,
    "INCLINATION": 97.3167,
    "RA_OF_ASC_NODE": 258.0519,
    "ARG_OF_PERICENTER": 52.5887,
    "MEAN_ANOMALY": 307.6389,
    "EPHEMERIS_TYPE": 0,
    "CLASSIFICATION_TYPE": "U",
    "NORAD_CAT_ID": 43833,
    "ELEMENT_SET_NO": 999,
    "REV_AT_EPOCH": 41971,
    "BSTAR": 0.00012122,
    "MEAN_MOTION_DOT": 0.00003298,
    "MEAN_MOTION_DDOT": 0
   }
  }
 ]
}
